[{"OBJECT_NAME":"STARLINK-33674","OBJECT_ID":"2025-057Y","EPOCH":"2026-03-09T22:21:17.636832","MEAN_MOTION":15.27581382,"ECCENTRICITY":4.501e-5,"INCLINATION":42.9993,"RA_OF_ASC_NODE":29.549,"ARG_OF_PERICENTER":243.4812,"MEAN_ANOMALY":116.5993,"EPHEMERIS_TYPE":0,"CLASSIFICATION_TYPE":"U","NORAD_CAT_ID":63329,"ELEMENT_SET_NO":999,"REV_AT_EPOCH":5581,"BSTAR":0.0010336035,"MEAN_MOTION_DOT":0.00028291,"MEAN_MOTION_DDOT":0},{"OBJECT_NAME":"USA 60","OBJECT_ID":"1990-050B","EPOCH":"2026-03-09T13:24:55.962720","MEAN_MOTION":13.64521674,"ECCENTRICITY":0.0879763,"INCLINATION":63.2945,"RA_OF_ASC_NODE":117.426,"ARG_OF_PERICENTER":81.005,"MEAN_ANOMALY":288.9398,"EPHEMERIS_TYPE":0,"CLASSIFICATION_TYPE":"U","NORAD_CAT_ID":20682,"ELEMENT_SET_NO":999,"REV_AT_EPOCH":9025,"BSTAR":0.00037184,"MEAN_MOTION_DOT":5.55e-5,"MEAN_MOTION_DDOT":0}]
